UWE-3                   
1 39446U 13066AG  26068.86347791  .00006533  00000+0  57142-3 0  9997
2 39446  97.8589  24.3957 0048462 291.5404  68.0655 14.96183146662729
STARLINK-4393           
1 53470U 22099F   26068.92208781 -.00001323  00000+0 -98481-4 0  9994
2 53470  97.6017 190.4390 0002203  80.9921 279.1553 15.01259694196014
